sat29104
1 29104U 01049PN  20046.28564586  .00001794  00000-0  78325-4 0  9996
2 29104  97.4934  65.6855 0015313 254.5203 105.4342 15.23368275843807
